IRIDIUM 33 DEB          
1 33960U 97051BV  26065.96891546  .00029163  00000+0  30025-2 0  9992
2 33960  86.2494 249.6321 0002582 120.4631   5.3442 14.90146619901196
IRIDIUM 33 DEB          
1 33966U 97051CB  26065.63515579  .00003286  00000+0  84332-3 0  9990
2 33966  86.3971  10.0081 0005320 294.9211 243.5164 14.50028764896578
IRIDIUM 33 DEB          
1 34071U 97051CE  26066.14490519  .00002691  00000+0  69016-3 0  9992
2 34071  86.3499 341.1434 0006972 169.6941 190.4407 14.49986356895570
IRIDIUM 33 DEB          
1 34077U 97051CL  26066.15700411  .00010035  00000+0  18024-2 0  9997
2 34077  86.3893  14.2648 0012210  92.6818 332.1907 14.66554297895696
IRIDIUM 33 DEB          
1 34079U 97051CN  26066.20468802  .00017533  00000+0  19530-2 0  9993
2 34079  86.3784 330.1567 0009526  53.2474  69.1833 14.86965265902310
IRIDIUM 33 DEB          
1 34088U 97051CX  26066.21037640  .00044406  00000+0  37581-2 0  9991
2 34088  86.3862 351.7329 0001722  73.1584  47.8604 14.97825460900035
IRIDIUM 33 DEB          
1 34091U 97051DA  26065.90838022  .00054217  00000+0  56000-2 0  9991
2 34091  86.3449  28.0593 0032314   8.9553 351.2242 14.89506031891164
IRIDIUM 33 DEB          
1 34097U 97051DG  26066.16298774  .00003796  00000+0  12612-2 0  9997
2 34097  86.2011 324.1369 0083878  84.6049 276.4709 14.35525384883303
IRIDIUM 33 DEB          
1 34145U 97051DY  26065.60099569  .00003606  00000+0  10526-2 0  9992
2 34145  86.2087 295.1617 0052097 175.4494 184.7191 14.43071771888479
IRIDIUM 33 DEB          
1 34146U 97051DZ  26066.14183322  .00002673  00000+0  68655-3 0  9994
2 34146  86.2830 312.5147 0025661 308.6223 203.4629 14.49720362893299
IRIDIUM 33 DEB          
1 34159U 97051EN  26066.10431899  .00001811  00000+0  58114-3 0  9991
2 34159  86.3550  12.2593 0028919  14.7634 345.4401 14.38744196891722
IRIDIUM 33 DEB          
1 34350U 97051ES  26066.20343897  .00001371  00000+0  38135-3 0  9997
2 34350  86.3305 326.1713 0019409 214.8446 269.0845 14.45684669895130
IRIDIUM 33 DEB          
1 34366U 97051FJ  26066.16056806  .00005773  00000+0  13339-2 0  9998
2 34366  86.3730  12.5620 0018189 212.3945 213.1332 14.54979878894097
IRIDIUM 33 DEB          
1 34375U 97051FT  26065.23059823  .00001331  00000+0  60827-3 0  9998
2 34375  86.4351 149.0725 0100990 220.6885 166.2246 14.18172186878952
IRIDIUM 33 DEB          
1 34376U 97051FU  26065.91636847  .00008945  00000+0  16782-2 0  9999
2 34376  86.2991 328.6525 0022470 244.7846 115.1037 14.64483267892384
IRIDIUM 33 DEB          
1 34486U 97051GB  26066.19769447  .00035861  00000+0  27254-2 0  9998
2 34486  86.3937 332.8679 0009479 145.4605   6.0905 15.01962868902518
