[{"OBJECT_NAME":"IRIDIUM 33 DEB","OBJECT_ID":"1997-051BV","EPOCH":"2026-03-06T23:15:14.295744","MEAN_MOTION":14.90146619,"ECCENTRICITY":0.0002582,"INCLINATION":86.2494,"RA_OF_ASC_NODE":249.6321,"ARG_OF_PERICENTER":120.4631,"MEAN_ANOMALY":5.3442,"EPHEMERIS_TYPE":0,"CLASSIFICATION_TYPE":"U","NORAD_CAT_ID":33960,"ELEMENT_SET_NO":999,"REV_AT_EPOCH":90119,"BSTAR":0.0030025,"MEAN_MOTION_DOT":0.00029163,"MEAN_MOTION_DDOT":0},{"OBJECT_NAME":"IRIDIUM 33 DEB","OBJECT_ID":"1997-051CB","EPOCH":"2026-03-06T15:14:37.460256","MEAN_MOTION":14.50028764,"ECCENTRICITY":0.00053206,"INCLINATION":86.3971,"RA_OF_ASC_NODE":10.0081,"ARG_OF_PERICENTER":294.9211,"MEAN_ANOMALY":243.5164,"EPHEMERIS_TYPE":0,"CLASSIFICATION_TYPE":"U","NORAD_CAT_ID":33966,"ELEMENT_SET_NO":999,"REV_AT_EPOCH":89657,"BSTAR":0.00084332139,"MEAN_MOTION_DOT":3.286e-5,"MEAN_MOTION_DDOT":0},{"OBJECT_NAME":"IRIDIUM 33 DEB","OBJECT_ID":"1997-051CE","EPOCH":"2026-03-07T03:28:39.808416","MEAN_MOTION":14.49986356,"ECCENTRICITY":0.0006972,"INCLINATION":86.3499,"RA_OF_ASC_NODE":341.1434,"ARG_OF_PERICENTER":169.6941,"MEAN_ANOMALY":190.4407,"EPHEMERIS_TYPE":0,"CLASSIFICATION_TYPE":"U","NORAD_CAT_ID":34071,"ELEMENT_SET_NO":999,"REV_AT_EPOCH":89557,"BSTAR":0.00069016,"MEAN_MOTION_DOT":2.691e-5,"MEAN_MOTION_DDOT":0},{"OBJECT_NAME":"IRIDIUM 33 DEB","OBJECT_ID":"1997-051CL","EPOCH":"2026-03-07T03:46:05.155104","MEAN_MOTION":14.66554297,"ECCENTRICITY":0.001221,"INCLINATION":86.3893,"RA_OF_ASC_NODE":14.2648,"ARG_OF_PERICENTER":92.6818,"MEAN_ANOMALY":332.1907,"EPHEMERIS_TYPE":0,"CLASSIFICATION_TYPE":"U","NORAD_CAT_ID":34077,"ELEMENT_SET_NO":999,"REV_AT_EPOCH":89569,"BSTAR":0.0018024,"MEAN_MOTION_DOT":0.00010035,"MEAN_MOTION_DDOT":0},{"OBJECT_NAME":"IRIDIUM 33 DEB","OBJECT_ID":"1997-051CN","EPOCH":"2026-03-07T04:54:45.044928","MEAN_MOTION":14.86965265,"ECCENTRICITY":0.0009526,"INCLINATION":86.3784,"RA_OF_ASC_NODE":330.1567,"ARG_OF_PERICENTER":53.2474,"MEAN_ANOMALY":69.1833,"EPHEMERIS_TYPE":0,"CLASSIFICATION_TYPE":"U","NORAD_CAT_ID":34079,"ELEMENT_SET_NO":999,"REV_AT_EPOCH":90231,"BSTAR":0.001953,"MEAN_MOTION_DOT":0.00017533,"MEAN_MOTION_DDOT":0},{"OBJECT_NAME":"IRIDIUM 33 DEB","OBJECT_ID":"1997-051CX","EPOCH":"2026-03-07T05:02:56.520960","MEAN_MOTION":14.9782546,"ECCENTRICITY":0.0001722,"INCLINATION":86.3862,"RA_OF_ASC_NODE":351.7329,"ARG_OF_PERICENTER":73.1584,"MEAN_ANOMALY":47.8604,"EPHEMERIS_TYPE":0,"CLASSIFICATION_TYPE":"U","NORAD_CAT_ID":34088,"ELEMENT_SET_NO":999,"REV_AT_EPOCH":90003,"BSTAR":0.0037581,"MEAN_MOTION_DOT":0.00044406,"MEAN_MOTION_DDOT":0},{"OBJECT_NAME":"IRIDIUM 33 DEB","OBJECT_ID":"1997-051DA","EPOCH":"2026-03-06T21:48:04.051008","MEAN_MOTION":14.89506031,"ECCENTRICITY":0.0032314,"INCLINATION":86.3449,"RA_OF_ASC_NODE":28.0593,"ARG_OF_PERICENTER":8.9553,"MEAN_ANOMALY":351.2242,"EPHEMERIS_TYPE":0,"CLASSIFICATION_TYPE":"U","NORAD_CAT_ID":34091,"ELEMENT_SET_NO":999,"REV_AT_EPOCH":89116,"BSTAR":0.0056,"MEAN_MOTION_DOT":0.00054217,"MEAN_MOTION_DDOT":0},{"OBJECT_NAME":"IRIDIUM 33 DEB","OBJECT_ID":"1997-051DG","EPOCH":"2026-03-07T03:54:42.140736","MEAN_MOTION":14.35525384,"ECCENTRICITY":0.0083878,"INCLINATION":86.2011,"RA_OF_ASC_NODE":324.1369,"ARG_OF_PERICENTER":84.6049,"MEAN_ANOMALY":276.4709,"EPHEMERIS_TYPE":0,"CLASSIFICATION_TYPE":"U","NORAD_CAT_ID":34097,"ELEMENT_SET_NO":999,"REV_AT_EPOCH":88330,"BSTAR":0.0012612,"MEAN_MOTION_DOT":3.796e-5,"MEAN_MOTION_DDOT":0},{"OBJECT_NAME":"IRIDIUM 33 DEB","OBJECT_ID":"1997-051DY","EPOCH":"2026-03-06T14:25:26.027616","MEAN_MOTION":14.43071771,"ECCENTRICITY":0.00520975,"INCLINATION":86.2087,"RA_OF_ASC_NODE":295.1617,"ARG_OF_PERICENTER":175.4494,"MEAN_ANOMALY":184.7191,"EPHEMERIS_TYPE":0,"CLASSIFICATION_TYPE":"U","NORAD_CAT_ID":34145,"ELEMENT_SET_NO":999,"REV_AT_EPOCH":88847,"BSTAR":0.0010526205,"MEAN_MOTION_DOT":3.606e-5,"MEAN_MOTION_DDOT":0},{"OBJECT_NAME":"IRIDIUM 33 DEB","OBJECT_ID":"1997-051DZ","EPOCH":"2026-03-07T03:24:14.390208","MEAN_MOTION":14.49720362,"ECCENTRICITY":0.0025661,"INCLINATION":86.283,"RA_OF_ASC_NODE":312.5147,"ARG_OF_PERICENTER":308.6223,"MEAN_ANOMALY":203.4629,"EPHEMERIS_TYPE":0,"CLASSIFICATION_TYPE":"U","NORAD_CAT_ID":34146,"ELEMENT_SET_NO":999,"REV_AT_EPOCH":89329,"BSTAR":0.00068655,"MEAN_MOTION_DOT":2.673e-5,"MEAN_MOTION_DDOT":0},{"OBJECT_NAME":"IRIDIUM 33 DEB","OBJECT_ID":"1997-051EN","EPOCH":"2026-03-07T02:30:13.160736","MEAN_MOTION":14.38744196,"ECCENTRICITY":0.0028919,"INCLINATION":86.355,"RA_OF_ASC_NODE":12.2593,"ARG_OF_PERICENTER":14.7634,"MEAN_ANOMALY":345.4401,"EPHEMERIS_TYPE":0,"CLASSIFICATION_TYPE":"U","NORAD_CAT_ID":34159,"ELEMENT_SET_NO":999,"REV_AT_EPOCH":89172,"BSTAR":0.00058114,"MEAN_MOTION_DOT":1.811e-5,"MEAN_MOTION_DDOT":0},{"OBJECT_NAME":"IRIDIUM 33 DEB","OBJECT_ID":"1997-051ES","EPOCH":"2026-03-07T04:52:57.127008","MEAN_MOTION":14.45684669,"ECCENTRICITY":0.0019409,"INCLINATION":86.3305,"RA_OF_ASC_NODE":326.1713,"ARG_OF_PERICENTER":214.8446,"MEAN_ANOMALY":269.0845,"EPHEMERIS_TYPE":0,"CLASSIFICATION_TYPE":"U","NORAD_CAT_ID":34350,"ELEMENT_SET_NO":999,"REV_AT_EPOCH":89513,"BSTAR":0.00038135,"MEAN_MOTION_DOT":1.371e-5,"MEAN_MOTION_DDOT":0},{"OBJECT_NAME":"IRIDIUM 33 DEB","OBJECT_ID":"1997-051FJ","EPOCH":"2026-03-07T03:51:13.080384","MEAN_MOTION":14.54979878,"ECCENTRICITY":0.0018189,"INCLINATION":86.373,"RA_OF_ASC_NODE":12.562,"ARG_OF_PERICENTER":212.3945,"MEAN_ANOMALY":213.1332,"EPHEMERIS_TYPE":0,"CLASSIFICATION_TYPE":"U","NORAD_CAT_ID":34366,"ELEMENT_SET_NO":999,"REV_AT_EPOCH":89409,"BSTAR":0.0013339,"MEAN_MOTION_DOT":5.773e-5,"MEAN_MOTION_DDOT":0},{"OBJECT_NAME":"IRIDIUM 33 DEB","OBJECT_ID":"1997-051FT","EPOCH":"2026-03-06T05:32:03.687072","MEAN_MOTION":14.18172186,"ECCENTRICITY":0.01009904,"INCLINATION":86.4351,"RA_OF_ASC_NODE":149.0725,"ARG_OF_PERICENTER":220.6885,"MEAN_ANOMALY":166.2246,"EPHEMERIS_TYPE":0,"CLASSIFICATION_TYPE":"U","NORAD_CAT_ID":34375,"ELEMENT_SET_NO":999,"REV_AT_EPOCH":87895,"BSTAR":0.00060826534,"MEAN_MOTION_DOT":1.331e-5,"MEAN_MOTION_DDOT":0},{"OBJECT_NAME":"IRIDIUM 33 DEB","OBJECT_ID":"1997-051FU","EPOCH":"2026-03-06T21:59:34.235808","MEAN_MOTION":14.64483267,"ECCENTRICITY":0.002247,"INCLINATION":86.2991,"RA_OF_ASC_NODE":328.6525,"ARG_OF_PERICENTER":244.7846,"MEAN_ANOMALY":115.1037,"EPHEMERIS_TYPE":0,"CLASSIFICATION_TYPE":"U","NORAD_CAT_ID":34376,"ELEMENT_SET_NO":999,"REV_AT_EPOCH":89238,"BSTAR":0.0016782,"MEAN_MOTION_DOT":8.945e-5,"MEAN_MOTION_DDOT":0},{"OBJECT_NAME":"IRIDIUM 33 DEB","OBJECT_ID":"1997-051GB","EPOCH":"2026-03-07T04:44:40.802208","MEAN_MOTION":15.01962868,"ECCENTRICITY":0.0009479,"INCLINATION":86.3937,"RA_OF_ASC_NODE":332.8679,"ARG_OF_PERICENTER":145.4605,"MEAN_ANOMALY":6.0905,"EPHEMERIS_TYPE":0,"CLASSIFICATION_TYPE":"U","NORAD_CAT_ID":34486,"ELEMENT_SET_NO":999,"REV_AT_EPOCH":90251,"BSTAR":0.0027254,"MEAN_MOTION_DOT":0.00035861,"MEAN_MOTION_DDOT":0}]
